ORBCOMM FM33 [-]        
1 25983U 99065D   23341.56061661  .00001077  00000+0  40673-3 0  9997
2 25983  45.0272 123.4827 0009303 145.1626 337.3865 14.37065380255853
ORBCOMM FM36 [-]        
1 25984U 99065E   23341.76418336  .00000859  00000+0  34852-3 0  9994
2 25984  45.0390 205.3568 0004015  22.8288 337.2737 14.34932622254863
ORBCOMM FM35 [+]        
1 25985U 99065F   23341.07024092  .00000871  00000+0  35524-3 0  9992
2 25985  45.0390 210.8420 0002885 112.4537 247.6616 14.34601742254572
ORBCOMM FM34 [-]        
1 25986U 99065G   23342.08077991  .00000704  00000+0  29665-3 0  9995
2 25986  45.0386 206.5723 0004043  65.5257 294.6011 14.34557603254871
ORBCOMM FM38 [-]        
1 33060U 08031A   23341.51103550  .00001649  00000+0  26333-3 0  9996
2 33060  48.4411  82.3970 0005415 179.6352 180.4566 14.76545409832214
ORBCOMM FM41 [-]        
1 33061U 08031B   23341.41526208  .00001639  00000+0  26328-3 0  9998
2 33061  48.4445  89.1179 0004439 166.3643 307.4566 14.76297345831706
ORBCOMM FM29 [-]        
1 33062U 08031C   23341.46291212  .00001763  00000+0  28173-3 0  9996
2 33062  48.4397  96.8947 0006414 162.3337 315.8479 14.76184249831627
ORBCOMM FM39 [-]        
1 33063U 08031D   23341.51144999  .00001638  00000+0  26919-3 0  9999
2 33063  48.4401 116.0897 0007078 137.4260 222.7203 14.75306310831342
